FENGYUN 1C DEB          
1 30315U 99025AAC 17346.32736205  .00000139  00000-0  92183-4 0  9996
2 30315  98.8630  12.6181 0037518  94.8404 330.0520 14.16074248563330
